NIMIQ 2                 
1 27632U 02062A   26185.62835442 -.00000061  00000+0  00000+0 0  9992
2 27632   9.4836  56.7105 0005530  44.0933 298.8598  1.00272071 44357
ANIK F2                 
1 28378U 04027A   26186.19826394 -.00000038  00000+0  00000+0 0  9996
2 28378   3.3310  79.2100 0003941  23.3148 140.9272  1.00271747 41444
ANIK F1R                
1 28868U 05036A   26186.21619672 -.00000064  00000+0  00000+0 0  9992
2 28868   4.3557  76.3598 0004109  17.6778 159.7103  1.00271802 46632
ANIK F3                 
1 31102U 07009A   26186.19679060  .00000012  00000+0  00000+0 0  9995
2 31102   1.2411  83.6522 0002716  22.7083 128.9642  1.00271533 46747
NIMIQ 4                 
1 33373U 08044A   26186.20406024  .00000000  00000+0  00000+0 0  9994
2 33373   0.0468  67.5353 0001849  46.9824 160.1825  1.00266259 65165
TELSTAR 11N             
1 34111U 09009A   26186.18293289 -.00000238  00000+0  00000+0 0  9995
2 34111   0.0177  68.9832 0002549  34.1566 208.3511  1.00271813 46427
TERRESTAR-1             
1 35496U 09035A   26186.19826394 -.00000045  00000+0  00000+0 0  9997
2 35496   5.1890  48.7857 0002634  48.0263 146.7489  1.00272537 62317
NIMIQ 5                 
1 35873U 09050A   26183.61678527 -.00000246  00000+0  00000+0 0  9993
2 35873   0.0248 285.3738 0002960 168.5925 336.0220  1.00270300 61490
SKYTERRA 1              
1 37218U 10061A   26185.13089791 -.00000108  00000+0  00000+0 0  9997
2 37218   5.1588  50.8236 0002214  42.9284 134.1987  1.00270206 57364
TELSTAR 14R             
1 37602U 11021A   26185.35233074 -.00000268  00000+0  00000+0 0  9997
2 37602   0.0586  83.3299 0002120 355.7829 267.0993  1.00270939 56005
NIMIQ 6                 
1 38342U 12026A   26186.13093587 -.00000161  00000+0  00000+0 0  9997
2 38342   0.0345 279.5728 0002773 187.3321 132.2645  1.00271550 50591
ANIK G1                 
1 39127U 13014A   26186.21619672  .00000000  00000+0  00000+0 0  9996
2 39127   0.0214  37.5223 0001718  76.9593 139.2617  1.00269731 48436
TELSTAR 12V             
1 41036U 15068A   26186.17961221 -.00000106  00000+0  00000+0 0  9992
2 41036   0.0148  52.9587 0002393  48.2372 231.6504  1.00271149 38803
VIASAT-2                
1 42740U 17029A   26186.23745807 -.00000252  00000+0  00000+0 0  9993
2 42740   0.0247 286.8365 0000289 182.6414 189.3741  1.00272406 33387
LEO 1 (LEO VANTAGE 1)   
1 43113U 18004C   26185.22328152  .00006004  00000+0  41207-3 0  9998
2 43113  99.2425 105.7360 0350331  27.3372 334.5792 14.67947212439985
TELSTAR 19V             
1 43562U 18059A   26186.20778692 -.00000267  00000+0  00000+0 0  9991
2 43562   0.0404 187.9728 0003030 296.1546 170.8826  1.00270781 29325
TELSTAR 18V             
1 43611U 18069A   26185.96239384 -.00000281  00000+0  00000+0 0  9995
2 43611   0.0268 281.5679 0001963 176.2364 309.6302  1.00271767 28812
AMOS-17                 
1 44479U 19050A   26186.22364700  .00000122  00000+0  00000+0 0  9993
2 44479   0.0289 314.0905 0001581 148.9301 277.7024  1.00270068 25361
